{
  "type": "FeatureCollection",
  "features": [
    {
      "type": "Feature",
      "properties": {
        "norad_id": 64902,
        "name": "CO3D 2",
        "group": "resource",
        "lat": 61.93764195189439,
        "lon": 39.04500444224401,
        "alt_km": 498.7806010356635,
        "timestamp": "2025-12-02T19:35:50.219889+00:00",
        "meta_object_name": "CO3D 2",
        "meta_object_id": "2025-156D",
        "meta_epoch": "2025-12-02T11:25:22.907712",
        "meta_mean_motion": 15.20201776,
        "meta_eccentricity": 9.86e-05,
        "meta_inclination": 97.4353,
        "meta_ra_of_asc_node": 52.8893,
        "meta_arg_of_pericenter": 114.2965,
        "meta_mean_anomaly": 245.8373,
        "meta_ephemeris_type": 0,
        "meta_classification_type": "U",
        "meta_norad_cat_id": 64902,
        "meta_element_set_no": 999,
        "meta_rev_at_epoch": 1964,
        "meta_bstar": 0.00036797,
        "meta_mean_motion_dot": 7.906e-05,
        "meta_mean_motion_ddot": 0,
        "tle_line1": "1 64902U 25156D   25336.47595958  .00007906  00000+0  36797-3 0  9997",
        "tle_line2": "2 64902  97.4353  52.8893 0000986 114.2965 245.8373 15.20201776 19643"
      },
      "geometry": {
        "type": "Point",
        "coordinates": [
          39.04500444224401,
          61.93764195189439
        ]
      }
    },
    {
      "type": "Feature",
      "properties": {
        "norad_id": 64903,
        "name": "CO3D 1",
        "group": "resource",
        "lat": 61.135374820894334,
        "lon": 39.519943577755136,
        "alt_km": 498.856283827693,
        "timestamp": "2025-12-02T19:35:50.219899+00:00",
        "meta_object_name": "CO3D 1",
        "meta_object_id": "2025-156E",
        "meta_epoch": "2025-12-02T11:25:36.183072",
        "meta_mean_motion": 15.20207711,
        "meta_eccentricity": 0.0001039,
        "meta_inclination": 97.4356,
        "meta_ra_of_asc_node": 52.8896,
        "meta_arg_of_pericenter": 117.2186,
        "meta_mean_anomaly": 242.9155,
        "meta_ephemeris_type": 0,
        "meta_classification_type": "U",
        "meta_norad_cat_id": 64903,
        "meta_element_set_no": 999,
        "meta_rev_at_epoch": 1964,
        "meta_bstar": 0.00055204,
        "meta_mean_motion_dot": 0.00011904,
        "meta_mean_motion_ddot": 0,
        "tle_line1": "1 64903U 25156E   25336.47611323  .00011904  00000+0  55204-3 0  9990",
        "tle_line2": "2 64903  97.4356  52.8896 0001039 117.2186 242.9155 15.20207711 19649"
      },
      "geometry": {
        "type": "Point",
        "coordinates": [
          39.519943577755136,
          61.135374820894334
        ]
      }
    },
    {
      "type": "Feature",
      "properties": {
        "norad_id": 66514,
        "name": "SENTINEL-6B",
        "group": "resource",
        "lat": -33.72720950674188,
        "lon": 165.8807625641175,
        "alt_km": 1317.9001578018533,
        "timestamp": "2025-12-02T19:35:50.219910+00:00",
        "meta_object_name": "SENTINEL-6B",
        "meta_object_id": "2025-264A",
        "meta_epoch": "2025-12-02T12:19:29.316000",
        "meta_mean_motion": 12.85877401,
        "meta_eccentricity": 0.0011523,
        "meta_inclination": 66.0387,
        "meta_ra_of_asc_node": 183.7849,
        "meta_arg_of_pericenter": 268.7805,
        "meta_mean_anomaly": 91.1893,
        "meta_ephemeris_type": 0,
        "meta_classification_type": "U",
        "meta_norad_cat_id": 66514,
        "meta_element_set_no": 999,
        "meta_rev_at_epoch": 197,
        "meta_bstar": 0.00033559,
        "meta_mean_motion_dot": 2.1e-07,
        "meta_mean_motion_ddot": 0,
        "tle_line1": "1 66514U 25264A   25336.51353375  .00000021  00000+0  33559-3 0  9992",
        "tle_line2": "2 66514  66.0387 183.7849 0011523 268.7805  91.1893 12.85877401  1973"
      },
      "geometry": {
        "type": "Point",
        "coordinates": [
          165.8807625641175,
          -33.72720950674188
        ]
      }
    }
  ]
}